{"type": "FeatureCollection", "features": [ {"type": "Feature", "properties": {"norad_id": 47068, "name": "COSMOS 2251 DEB", "group": "cosmos-2251-debris", "lat": -73.97345935831294, "lon": 124.89356056299302, "alt_km": 710.7761416101312, "timestamp": "2025-12-08T21:31:05.065122+00:00", "meta": {"OBJECT_NAME": "COSMOS 2251 DEB", "OBJECT_ID": "1993-036BXY", "EPOCH": "2025-12-08T08:42:24.014880", "MEAN_MOTION": 14.53106293, "ECCENTRICITY": 0.00184249, "INCLINATION": 74.0236, "RA_OF_ASC_NODE": 211.7352, "ARG_OF_PERICENTER": 298.9395, "MEAN_ANOMALY": 60.9918, "EPHEMERIS_TYPE": 0, "CLASSIFICATION_TYPE": "U", "NORAD_CAT_ID": 47068, "ELEMENT_SET_NO": 999, "REV_AT_EPOCH": 61693, "BSTAR": 0.0012733877, "MEAN_MOTION_DOT": 5.254e-05, "MEAN_MOTION_DDOT": 0}, "tle": {"line1": "1 47068U 93036BXY 25342.36277795  .00005254  00000+0  12734-2 0  9992", "line2": "2 47068  74.0236 211.7352 0018424 298.9395  60.9918 14.53106293616936"}}, "geometry": {"type": "Point", "coordinates": [124.89356056299302, -73.97345935831294]}}, {"type": "Feature", "properties": {"norad_id": 47073, "name": "COSMOS 2251 DEB", "group": "cosmos-2251-debris", "lat": 24.516738867809888, "lon": -143.98729239250545, "alt_km": 963.5049035878519, "timestamp": "2025-12-08T21:31:05.065132+00:00", "meta": {"OBJECT_NAME": "COSMOS 2251 DEB", "OBJECT_ID": "1993-036BYD", "EPOCH": "2025-11-28T23:48:38.837952", "MEAN_MOTION": 14.04684181, "ECCENTRICITY": 0.01626495, "INCLINATION": 74.0833, "RA_OF_ASC_NODE": 225.7586, "ARG_OF_PERICENTER": 267.1836, "MEAN_ANOMALY": 91.0675, "EPHEMERIS_TYPE": 0, "CLASSIFICATION_TYPE": "U", "NORAD_CAT_ID": 47073, "ELEMENT_SET_NO": 999, "REV_AT_EPOCH": 60168, "BSTAR": 0.0003803633, "MEAN_MOTION_DOT": 6.6e-06, "MEAN_MOTION_DDOT": 0}, "tle": {"line1": "1 47073U 93036BYD 25332.99211618  .00000660  00000+0  38036-3 0  9998", "line2": "2 47073  74.0833 225.7586 0162649 267.1836  91.0675 14.04684181601680"}}, "geometry": {"type": "Point", "coordinates": [-143.98729239250545, 24.516738867809888]}}, {"type": "Feature", "properties": {"norad_id": 47074, "name": "COSMOS 2251 DEB", "group": "cosmos-2251-debris", "lat": 63.03314235935166, "lon": 101.64532618708579, "alt_km": 828.0724964096062, "timestamp": "2025-12-08T21:31:05.065142+00:00", "meta": {"OBJECT_NAME": "COSMOS 2251 DEB", "OBJECT_ID": "1993-036BYE", "EPOCH": "2025-12-03T18:02:52.457856", "MEAN_MOTION": 14.35498744, "ECCENTRICITY": 0.01434773, "INCLINATION": 74.091, "RA_OF_ASC_NODE": 325.1457, "ARG_OF_PERICENTER": 355.2449, "MEAN_ANOMALY": 179.085, "EPHEMERIS_TYPE": 0, "CLASSIFICATION_TYPE": "U", "NORAD_CAT_ID": 47074, "ELEMENT_SET_NO": 999, "REV_AT_EPOCH": 2553, "BSTAR": 0.0029812178, "MEAN_MOTION_DOT": 9.625e-05, "MEAN_MOTION_DDOT": 0}, "tle": {"line1": "1 47074U 93036BYE 25337.75199604  .00009625  00000+0  29812-2 0  9999", "line2": "2 47074  74.0910 325.1457 0143477 355.2449 179.0850 14.35498744 25534"}}, "geometry": {"type": "Point", "coordinates": [101.64532618708579, 63.03314235935166]}}, {"type": "Feature", "properties": {"norad_id": 47116, "name": "COSMOS 2251 DEB", "group": "cosmos-2251-debris", "lat": 8.602925547937996, "lon": 66.03970433417003, "alt_km": 590.8229949930337, "timestamp": "2025-12-08T21:31:05.065153+00:00", "meta": {"OBJECT_NAME": "COSMOS 2251 DEB", "OBJECT_ID": "1993-036BYJ", "EPOCH": "2025-11-28T02:40:22.126944", "MEAN_MOTION": 14.97052334, "ECCENTRICITY": 0.00224176, "INCLINATION": 74.0247, "RA_OF_ASC_NODE": 270.3586, "ARG_OF_PERICENTER": 5.4926, "MEAN_ANOMALY": 12.2387, "EPHEMERIS_TYPE": 0, "CLASSIFICATION_TYPE": "U", "NORAD_CAT_ID": 47116, "ELEMENT_SET_NO": 999, "REV_AT_EPOCH": 59292, "BSTAR": 0.0024991708, "MEAN_MOTION_DOT": 0.00029033, "MEAN_MOTION_DDOT": 0}, "tle": {"line1": "1 47116U 93036BYJ 25332.11136721  .00029033  00000+0  24992-2 0  9991", "line2": "2 47116  74.0247 270.3586 0022417   5.4926  12.2387 14.97052334592926"}}, "geometry": {"type": "Point", "coordinates": [66.03970433417003, 8.602925547937996]}}, {"type": "Feature", "properties": {"norad_id": 53093, "name": "COSMOS 2251 DEB", "group": "cosmos-2251-debris", "lat": 52.4327142262333, "lon": -29.57567021635441, "alt_km": 735.3374060193573, "timestamp": "2025-12-08T21:31:05.065163+00:00", "meta": {"OBJECT_NAME": "COSMOS 2251 DEB", "OBJECT_ID": "1993-036BYP", "EPOCH": "2025-12-08T07:56:26.596896", "MEAN_MOTION": 14.41839874, "ECCENTRICITY": 0.00189476, "INCLINATION": 74.0371, "RA_OF_ASC_NODE": 309.626, "ARG_OF_PERICENTER": 27.7723, "MEAN_ANOMALY": 332.444, "EPHEMERIS_TYPE": 0, "CLASSIFICATION_TYPE": "U", "NORAD_CAT_ID": 53093, "ELEMENT_SET_NO": 999, "REV_AT_EPOCH": 17662, "BSTAR": 0.0014469513, "MEAN_MOTION_DOT": 4.718e-05, "MEAN_MOTION_DDOT": 0}, "tle": {"line1": "1 53093U 93036BYP 25342.33086339  .00004718  00000+0  14470-2 0  9999", "line2": "2 53093  74.0371 309.6260 0018947  27.7723 332.4440 14.41839874176628"}}, "geometry": {"type": "Point", "coordinates": [-29.57567021635441, 52.4327142262333]}}]}